id,center_name,address,area,area_id,crm_center_id,crm_area_id,city_id,state_id,country_id,pincode,latitude,longitude,phone_number,status,created_by,updated_by,created_at,updated_at
1,Agra,"2Nd Floor, Rajendra Point, M.G. Road, Raghunath Nagaragra, Uttar Pradesh",Agra,NULL,INUPAGR01,NULL,4536,38,82,282002,27.20097,78.0014003,"0562 - 2527295, 2527320, 9319216943",1,1,0,7/26/2017 10:19,NULL
2,Balleshwar Square,"G-1, Balleshwar Square, Opp Iskon Temple, S.G. Highwayahmedabad, Gujarat",Balleshwar Square,NULL,INGJAHM03,NULL,783,12,82,380015,23.029158,72.5065283,079- 26861740/41/42,1,1,0,7/26/2017 10:19,NULL
3,Allahabad,"11/25-A, First Floor, Above Mochi Showroom, Sardar Patel Marg, Civil Lines, (Opposite Vcc Mall), Allahabadallahabad, Uttar Pradesh",Allahabad,NULL,INUPALH01,NULL,4546,38,82,211001,25.4451179,81.832152,"0532 - 2260801 / 02, 8765046642, 9335632450",1,1,0,7/26/2017 10:19,NULL
4,Ambala Cantt,"172 - C/1, Sb Road Rai Market, Opp. Norton Motors, Ambala Canttambala Cantt, Haryana",Ambala Cantt,NULL,INHRAMB01,NULL,1096,13,82,133001,30.3617704,76.8027475,"0171 - 4002630, 2632690, 2633691",1,1,0,7/26/2017 10:19,NULL
5,Sls Tower,"First Floor, Sls Tower, 100 Feet Road, East Mohan Nagaramritsar, Punjab",Sls Tower,NULL,INPBAMR02,NULL,3134,32,82,143001,31.622262,74.8963673,"0183 - 5080136 / 37, 9888867486",1,1,0,7/26/2017 10:19,NULL
6,Ranjit Avenue,"Sco -27, 28 Gf, Taneja Towers, District Shopping Complex Ranjit Avenue, B-Block Market, Amritsaramritsar, Punjab",Ranjit Avenue,NULL,INPBAMR01,NULL,3134,32,82,143001,31.6510154,74.8609572,0183-5003170-79,1,1,0,7/26/2017 10:19,NULL
7,Aurangabad,"Showroom No 1 & 2, 2Nd Floor, Cts No. 4798, Saraswati Sankul, Opp S.B. College Bus Stop, Nirala Bazar, Aurangpuraaurangabad, Maharashtra",Aurangabad,NULL,INMHAUR01,NULL,453,22,82,431001,20.021429,75.4305383,"0240 - 2345695, 9049499049, 9326121009",1,1,0,7/26/2017 10:19,NULL
8,Woc Road,"Vlcc Health Care Limitedno.19,Sun Edifice, 20Th A Main, Near Mahalakshmi Metro Station, 1St R Block, West Of Chord Road, Rajaji Nagar,Bangalore, Karnataka",Woc Road,NULL,INKRBAN05,NULL,1558,17,82,560010,13.00779,77.5466263,"080 65555631/32, 07406627288",1,1,0,7/26/2017 10:19,NULL
9,Hrbr Layout,"4M/507, 3Rd Block, Kammanahalli Main Roadhrbr Layoutbengaluru, Karnataka",Hrbr Layout,NULL,INKRBAN04,NULL,1558,17,82,560043,13.0220515,77.6377255,8151985444,1,1,0,7/26/2017 10:19,NULL
10,Sada Shiv Nagar,"# 190, New Ward No. 35, Jp Square, 3Rd Floor, Sankey Road Opp. Bharat Petrol Pump, Sadashivnagarbangalore, Karnataka",Sada Shiv Nagar,NULL,INKRBAN02,NULL,1558,17,82,560080,21.849001,82.7434851,"080 - 41131761 / 762, 41534054",1,1,0,7/26/2017 10:19,NULL
11,Indira Nagar,"2015, 16Th Main Hal, 2Nd Stage, 100 Feet Road, Near Reebok Showroom Opposite Deputy Commissioner Police Officebangalore, Karnataka",Indira Nagar,NULL,INKRBAN06,NULL,1558,17,82,560008,12.966581,77.6394793,"080 - 42141726 / 27, 65702790, 25211742",1,1,0,7/26/2017 10:19,NULL
12,Whitefield,"The Planet No: 54, Sy No: 14,Above Food World Opposite Brookebond, Whitefield Main Road,Gidden Layout,Whitefieldbangalore, Karnataka",Whitefield,NULL,INKRBAN11,NULL,1558,17,82,560066,12.9639487,77.7464411,080 - 41714880 / 81 / 82,1,1,0,7/26/2017 10:19,NULL
13,Jaya Nagar,"No. 96/5 Southend Road, Southend Circle, Basavangudi,Opposite Deputy Commissioner Police Officebangalore, Karnataka",Jaya Nagar,NULL,INKRBAN03,NULL,1558,17,82,560004,13.0004666,77.479365,080 - 41204700,1,1,0,7/26/2017 10:19,NULL
14,Koramangala,"C-7, Bmp Ward 67, Near Bethany School Ganesh Temple Road, Koramangalabangalore, Karnataka",Koramangala,NULL,INKRBAN01,NULL,1558,17,82,560034,12.9380778,77.6165426,080 - 25501820 / 21,1,1,0,7/26/2017 10:19,NULL
15,J P Nagar,"447-A, Sri Gurukpupa Complex, 9Th Cross, 2Nd Phase Jp Nagar, Next To Tirumala Templebangalore, Karnataka",J P Nagar,NULL,INKRBAN07,NULL,1558,17,82,560078,12.9369109,77.5441345,"080-65307766/7788, 080-26585715",1,1,0,7/26/2017 10:19,NULL
16,HSR,"1660 & 1661, Ground Floor,27Th Main Road 2Nd Sector,Hsr Layoutbangalore, Karnataka",HSR,NULL,INKRBAN12,NULL,1558,17,82,560102,12.9392235,77.5520823,080-29763227/28/29,1,1,0,7/26/2017 10:19,NULL
17,Bareilly,"63/64,Gks Palace,Civil Lines,Choupla Roadbareilly, Uttar Pradesh",Bareilly,NULL,INUPBRL01,NULL,4612,38,82,243001,28.353554,79.4121443,"0581-2570256,0065",1,1,0,7/26/2017 10:19,NULL
18,Bhopal,"47/A Malviya Nagar, Near Tanishq Showroom, New Marketbhopal, Madhya Pradesh",Bhopal,NULL,INMPBHO01,NULL,2145,21,82,462003,23.2335422,77.4010356,07554232201/02/03,1,1,0,7/26/2017 10:19,NULL
19,Kharvel Nagar,"5, Janpath, 1St Floor, Near Ram Mandir, Kharvel Nagar, Unit-Iiibhubaneswar , Odisha",Kharvel Nagar,NULL,INORBHU01,NULL,2995,29,82,751001,20.276766,85.8417643,0674-2380579/3299940,1,1,0,7/26/2017 10:19,NULL
20,Mani Majra,"Sco - 43, Pocket No.1, Chandigarh Kalka Highway, Manimajrachandigarh, Punjab",Mani Majra,NULL,INPBCHD03,NULL,594,6,82,160101,30.716667,76.833333,"0172 - 4625566, 4626677, 4628877",1,1,0,7/26/2017 10:19,NULL
21,Sector 35 C,"Sco-425/426 Sector 35C, Chandigarhchandigarh, Punjab",Sector 35 C,NULL,INPBCHD01,NULL,594,6,82,160022,30.7225041,76.7592486,0172-2600424/425,1,1,0,7/26/2017 10:19,NULL
22,Anna Nagar,"Plot No. 3792, Old No. 89, New No. 12 Q Block, 4Th Main Road, Behind Yesyes Super Market,Anna Nagarchennai, Tamil Nadu",Anna Nagar,NULL,INTNCHN04,NULL,3659,35,82,600040,13.0878259,80.2115863,044-43016661/2/3,1,1,0,7/26/2017 10:19,NULL
23,Ph Road,"No.323, Diamond Dune, Poonamallee High Road, Next To Pachiappas College, Aminjikaraichennai, Tamil Nadu",Ph Road,NULL,INTNCHN01,NULL,3659,35,82,600029,13.07483,80.2295283,"044 - 26680548/828,42698771/2",1,1,0,7/26/2017 10:19,NULL
24,Ttk Road,"No. 79 , C.P Ramaswamy Road, Alwarpetchennai, Tamil Nadu",Ttk Road,NULL,INTNCHN02,NULL,3659,35,82,600080,13.034489,80.2389865,"04424671918/1966, 24985209/ 5236",1,1,0,7/26/2017 10:19,NULL
25,Adyar,"No. 82/51, Indira Nagar, 1St Avenue, Adyarchennai, Tamil Nadu",Adyar,NULL,INTNCHN03,NULL,3659,35,82,600020,12.997886,80.2493613,"044- 24422133/34, 42695200/300",1,1,0,7/26/2017 10:19,NULL
26,Velachery,"No. 9 & 26, Taramani 100 Ft. Road, Ramagiri, Opposite To Tcs Building, Velacherychennai, Tamil Nadu",Velachery,NULL,INTNCHN05,NULL,3659,35,82,600042,12.981756,80.2291723,044-45114015/16/17,1,1,0,7/26/2017 10:19,NULL
27,R.S. Puram,"No. 1 East Periasamy Road, Opposite Lotus Eye Hospital, R.S. Puramcoimbatore , Tamil Nadu",R.S. Puram,NULL,INTNCOM02,NULL,3683,35,82,641002,11.0130765,76.9470301,"0422-4347722,0422-4367722,0422-4387722",1,1,0,7/26/2017 10:19,NULL
28,Race Course Road,"184,Near Thomas Park,Race Course Roadcoimbatore , Tamil Nadu",Race Course Road,NULL,INTNCOM01,NULL,3683,35,82,641018,11.0022631,76.9802248,"0422-4397722,4397733,4397072",1,1,0,7/26/2017 10:19,NULL
29,Dehradun,"448/1, 1St Floor,Opposite Hotel Great Value Rajpur Road,Dehradun, Uttarakhand",Dehradun,NULL,INURDHD01,NULL,5236,39,82,248001,30.3281364,78.0120918,01352743402/03,1,1,0,7/26/2017 10:19,NULL
30,Gk - 2,"M-14, M-Block Market,Greater Kailash-Iinew Delhi, Delhi",Gk - 2,NULL,INDLDEL19,NULL,706,10,82,110048,28.5423962,77.2296552,"011 - 41632463 / 64, 41631975 / 76",1,1,0,7/26/2017 10:19,NULL
31,Dwarka,"101, 1St Floor, Hl Wings, Plot No 2, Pocket-4, Sec-11New Delhi, Delhi",Dwarka,NULL,INDLDEL24,NULL,706,10,82,110075,28.5864095,77.0462514,011-28042878/40618986,1,1,0,7/26/2017 10:19,NULL
32,Vasant Vihar,"22 Community Centre, Basant Lok, Priya Complex, Vasant Viharnew Delhi, Delhi",Vasant Vihar,NULL,INDLDEL14,NULL,706,10,82,110057,28.5589953,77.1616508,011-26155561-64,1,1,0,7/26/2017 10:19,NULL
33,Janakpuri,"A1/163A, Main Najafgarh Road, Janak Puri, (Opp Metro Pillar No. 621)New Delhi, Delhi",Janakpuri,NULL,INDLDEL15,NULL,706,10,82,110058,28.6263706,77.0690391,"011 - 25511051, 41573052, 8744051594",1,1,0,7/26/2017 10:19,NULL
34,"Malviya Nagar, Delhi","C-51, First Floor, Main Market, Near Laxmi Narayan Temple, Malviya Nagarnew Delhi, Delhi",Malviya Nagar,NULL,INDLDEL25,NULL,706,10,82,110017,28.5348185,77.2075658,"011 - 41033959, 26687333/ 444",1,1,0,7/26/2017 10:19,NULL
35,Safdarjung Enclave,"B-4/52, Safdarjung Enclavenew Delhi, Delhi",Safdarjung Enclave,NULL,INDLDEL23,NULL,706,10,82,110029,28.559962,77.1970093,"011 - 26182075 / 76, 26197158 / 59",1,1,0,7/26/2017 10:19,NULL
36,Pusa Road,"11/1 B, Pusa Roadnew Delhi, Delhi",Pusa Road,NULL,INDLDEL10,NULL,706,10,82,110060,28.559944,77.1291578,011 - 25824200 / 01,1,1,0,7/26/2017 10:19,NULL
37,New Friends Colony,"Vlcc Healthcare Ltd. 47, 1St Floor, Community Center Market, New Friends Colony, Near Mtnl Officenew Delhi, Delhi",New Friends Colony,NULL,INDLDEL06,NULL,706,10,82,110025,28.5620153,77.2666741,011-26318884/5/6,1,1,0,7/26/2017 10:19,NULL
38,Punjabi Bagh West,"Building No 35, 1St 2Nd & 3Rd Floor, Central Market, Punjabi Baghnew Delhi, Delhi",Punjabi Bagh West,NULL,INDLDEL09,NULL,706,10,82,110026,28.670961,77.1323113,"011 - 25228003, 25224514, 45087277, 9810381191",1,1,0,7/26/2017 10:19,NULL
39,Pitampura,"203-204, 2Nd Floor, P.P.Towers, Netaji Subhash Place, Pitampuranew Delhi, Delhi",Pitampura,NULL,INDLDEL07,NULL,706,10,82,110034,28.6957377,77.1426672,"011-27353488, 011-27355006, 011-47047434",1,1,0,7/26/2017 10:19,NULL
40,Model Town,"F-14/30, Model Town-Iinew Delhi, Delhi",Model Town,NULL,INDLDEL04,NULL,706,10,82,110009,28.707347,77.1893033,"011-27417371, 72",1,1,0,7/26/2017 10:19,NULL
41,Preet Vihar,"G-85, Main Vikas Marg, Preet Viharnew Delhi, Delhi",Preet Vihar,NULL,INDLDEL08,NULL,706,10,82,110092,28.642385,77.2947726,011 - 42421001/02/03,1,1,0,7/26/2017 10:19,NULL
42,Sector 16,"Sco - 5 ,1St Floor, Sector 16, Near Yes Bank, Faridabadfaridabad, Haryana",Sector 16,NULL,INURDHD01,NULL,1119,13,82,121001,28.413955,77.3189153,0129-2268937 / 2269901/02,1,1,0,7/26/2017 10:19,NULL
43,Indirapuram,"Ground Floor 10, Gaur Gravity-8, Vaibhav Khand, Indirapuramghaziabad, Uttar Pradesh",Indirapuram,NULL,INUPGHZ02,NULL,4759,38,82,201014,28.63403,77.3584283,0120 - 4115516 / 17 / 18,1,1,0,7/26/2017 10:19,NULL
44,Rajnagar,"D-Block 26,27 First Floor Rdc, Opposite Gaur Central Mallghaziabad, Uttar Pradesh",Rajnagar,NULL,INUPGHZ01,NULL,4759,38,82,201001,28.674418,77.4373013,0120.2821940/3941/4273,1,1,0,7/26/2017 10:19,NULL
45,Panjim,"Casa Albela Villa,Near Campal Clinic,Campalpanjim, Goa",Panjim,NULL,INGOGOA01,NULL,733,11,82,403001,15.488434,73.8131823,0832 - 2421429 / 30,1,1,0,7/26/2017 10:19,NULL
46,Sohna Road,"Shop No. 22, Vatika City Market, Sector- 49, Sohna Roadgurugram, Haryana",Sohna Road,NULL,INHRGUR04,NULL,1126,13,82,122018,28.4022755,77.0433627,"0124-4032370,8744051970",1,1,0,7/26/2017 10:19,NULL
47,Dlf Phase I,"A-14/23, Dlf Phase-1Gurugram, Haryana",Dlf Phase I,NULL,INHRGUR01,NULL,1126,13,82,122001,28.4692399,77.0840781,0124-2354900-01,1,1,0,7/26/2017 10:19,NULL
48,Palam Vihar,"Sco 60, Dsc Sector 23A, Opp H. P. Petrol Pumpgurugram, Haryana",Palam Vihar,NULL,INHRGUR02,NULL,1126,13,82,122017,28.5084796,77.0639631,0124 - 4205470 / 71,1,1,0,7/26/2017 10:19,NULL
49,Gnb Road,"3Rd Floor,Agni Shanti Business Park Opposite Agp Office,Gnb Road,Ambariguwahati, Assam",Gnb Road,NULL,INASGUW02,NULL,371,4,82,781001,26.183878,91.7515533,"0361-2373816/876, +919859928108",1,1,0,7/26/2017 10:19,NULL
50,Christian Basti,"3Rd Floor,J.K Heritage,G.S Road, Christianbasti,Guwahatiguwahati, Assam",Christian Basti,NULL,INASGUW01,NULL,371,4,82,781005,26.157256,91.7747303,"0361-2345555,2346666",1,1,0,7/26/2017 10:19,NULL
51,Gwalior,"45A,Gf City Centre,Opposite Airtel Officegwalior, Madhya Pradesh",Gwalior,NULL,INMPGWL01,NULL,2214,21,82,474001,26.20595,78.1867063,0751 - 4015700 / 800,1,1,0,7/26/2017 10:19,NULL
52,Hubli,"4/1, 1St Floor, Kvm Plaza, Opp Sona Chamber, Next To Jtk Showroom, Club Roadopposite Deputy Commissioner Police Officehubli, Karnataka",Hubli,NULL,INKRHUB01,NULL,1647,17,82,580029,21.84924,82.7786323,083 - 62358833 / 34,1,1,0,7/26/2017 10:19,NULL
53,Kukatpally,"H No. 211, First Floor,Mig 1,Road Number 1 Near Icici Direct,Kphb Colonyhyderabad, Telangana",Kukatpally,NULL,INAPHYD07,NULL,4460,2,82,500072,21.849679,82.7775163,"040-23151686,152686,153686",1,1,0,7/26/2017 10:19,NULL
54,As Rao Nagar,"Block Number 18,Maruthi Arcade,Dr. As Rao Nagarhyderabad, Telangana",As Rao Nagar,NULL,INAPHYD05,NULL,4460,2,82,500062,17.4816259,78.5512747,040-27140652,1,1,0,7/26/2017 10:19,NULL
55,Hi-Tech City,"No. 291/14/9/2, Bhasker Empire, Opp. Jayabheri Silicon County, Kondapurhyderabad, Telangana",Hi-Tech City,NULL,INAPHYD03,NULL,4460,2,82,500032,19.6174265,78.3607038,04023113856/57/67,1,1,0,7/26/2017 10:19,NULL
56,Srinagar Colony,"House No:8-3-986 & 986/1, Plot No: 124, Ward No:6, Block F, Srinagar Colonyhyderabad, Telangana",Srinagar Colony,NULL,INAPHYD08,NULL,4460,2,82,500073,19.6171677,78.3609183,"040-23758828/8838/8848, 9346118907",1,1,0,7/26/2017 10:19,NULL
57,Banjara Hills,"8-2-684/3/J/A,Plot Number A,Road Number 12 Above Volvo Showroom,Banjara Hillshyderabad, Telangana",Banjara Hills,NULL,INAPHYD01,NULL,4460,2,82,500034,17.4128286,78.4282677,"040-23370708,23378906,23378942",1,1,0,7/26/2017 10:19,NULL
58,Himayat Nagar,"No. 3-6-365 /A/B, Sama Towers, Opp. Stanza, Mahaveer Chambers, Liberty Circle, Himayat Nagar,Hyderabad, Telangana",Himayat Nagar,NULL,INAPHYD02,NULL,4460,2,82,500029,19.5896393,78.3605734,040-23262163/64/65,1,1,0,7/26/2017 10:19,NULL
59,Vijay Nagar,"Bf-28, Gurjar Square Building, Near Doodh Amrit,3Rd Floor, Scheme No. 54, Vijay Nagar,Indore, Madhya Pradesh",Vijay Nagar,NULL,INMPIND01,NULL,2229,21,82,452010,22.755944,75.8894783,0731-4935040,1,1,0,7/26/2017 10:19,NULL
60,Ashok Marg,"K-11-B, 1St Floor, Guru Nanak Complex, Ashok Marg, C-Schemejaipur, Rajasthan",Ashok Marg,NULL,INRJJPR01,NULL,3378,33,82,302001,26.914358,75.8045313,0141 - 2363251 / 52,1,1,0,7/26/2017 10:19,NULL
61,Vaishali Nagar,"E-16, 1St Floor,Chandra Tower,Near Gupta Storeopposite Pnb Bank,Vaishali Nagarjaipur, Rajasthan",Vaishali Nagar,NULL,INRJJPR02,NULL,3378,33,82,302021,26.9097099,75.7416612,0141-2358530/31,1,1,0,7/26/2017 10:19,NULL
62,"Malviya Nagar, Rajasthan","36-37, 1St Floor,Sdc Building,Near Mouji Colonypradhan Marg,Malviya Nagarjaipur, Rajasthan",Malviya Nagar,NULL,INRJJPR04,NULL,3378,33,82,302017,26.8587158,75.8104094,0141-2520429/2520468,1,1,0,7/26/2017 10:19,NULL
63,Jalandhar,"Vlcc Health Care Ltd 688-R Model Town 1St Floor Julka Tower Above Yes Bank Jalandhar Cityjalandhar, Punjab",Jalandhar,NULL,INPBJLD01,NULL,3203,32,82,144003,31.3036887,75.5756643,0181-5074695-96-97-98-99,1,1,0,7/26/2017 10:19,NULL
64,Channi Himmat,"Vlcc Health Care Ltd. Ground Floor, Sector 3, Channi, Himmat Railway Phatak,Jammu, Jammu And Kashmir",Channi Himmat,NULL,INJKJMU02,NULL,1303,15,82,180015,32.6907329,74.8881745,,1,1,0,7/26/2017 10:19,NULL
65,"Gandhi Nagar, Jammu","20 C/C,Gandhi Nagarjammu, J&K","Gandhi Nagar, Jammu",NULL,INJKJMU01,NULL,1303,15,82,180004,33.879851,75.1354921,"0191-2450422, 2430736, 09796871777",1,1,0,7/26/2017 10:19,NULL
66,Swaroop Nagar,"7/190, Nageshwar Tower, Swaroop Nagar,Kanpur, Uttar Pradesh",Swaroop Nagar,NULL,INUPKPR01,NULL,4861,38,82,208002,26.4828867,80.3203491,"0512 - 2557147, 2557153, 3048397",1,1,0,7/26/2017 10:19,NULL
67,Howrah,"Plot No.35, Dr. Abani Dutta Road, Premises No. A11 & A12, Howrahkolkata, West Bengal",Howrah,NULL,INWBKKT03,NULL,5583,41,82,711106,22.5726577,88.128257,033-26757231/32/33,1,1,0,7/26/2017 10:19,NULL
68,Alipore,"Flat No.1C & 1D,16S & 15N,Block A,New Aliporekolkata, West Bengal",Alipore,NULL,INWBKKT01,NULL,5583,41,82,700053,22.517659,88.3215383,033 - 23997176 / 77 / 78,1,1,0,7/26/2017 10:19,NULL
69,Willow Tower,"115A,Biren Roy Road (East),Behala Chowrastakolkata, West Bengal",Willow Tower,NULL,INWBKKT07,NULL,5583,41,82,700008,22.485346,88.3067203,033 - 2488-3434/35/36,1,1,0,7/26/2017 10:19,NULL
70,Theatre Road,"33, Shakespeare Sarani, 1St Floor,Opp. Rani Birla Collegekolkata, West Bengal",Theatre Road,NULL,INWBKKT05,NULL,5583,41,82,700017,22.544395,88.3550733,033 - 22893131 / 32 / 33,1,1,0,7/26/2017 10:19,NULL
71,Vip Road,"Swastik Building, 2Nd Floor,Nazrul Islam Avenueopposite Haldiram,Near Charnock Hospital,Rajarhat Vip Roadkolkata, West Bengal",Vip Road,NULL,INWBKKT04,NULL,5583,41,82,700157,22.626076,88.4314553,033 2573 5700 / 5701 / 5702,1,1,0,7/26/2017 10:19,NULL
72,Jodhpur Park,"1/432, Gariahat Road,Jodhpur Parkkolkata, West Bengal",Jodhpur Park,NULL,INWBKKT06,NULL,5583,41,82,700068,22.506852,88.3651123,033 - 24292601 / 02 / 03,1,1,0,7/26/2017 10:19,NULL
73,Kasba,"28/1,Bosepukur Road,Besides Kasba New Police Stationkolkata, West Bengal",Kasba,NULL,INWBKKT09,NULL,5583,41,82,700042,22.5198465,88.3810813,"033-24414477 / 78, 9830517575",1,1,0,7/26/2017 10:19,NULL
74,Salt Lake,"Unit D, Ground Floor,Rdb Boulevard,Plot K1 Block Ep & Gp,Saltlake Sector V,Kolkata, West Bengal",Salt Lake,NULL,INWBKKT08,NULL,5583,41,82,700091,22.569134,88.4310413,033 - 23576565 / 66 / 67,1,1,0,7/26/2017 10:19,NULL
75,Hazratganj,"2Nd Floor,Rohit House,Opposite Saharaganj Mall Shahnazaf Roadlucknow, Uttar Pradesh",Hazratganj,NULL,INUPLKN02,NULL,4933,38,82,226001,26.855019,80.9425943,0522-4000095/96/97,1,1,0,7/26/2017 10:19,NULL
76,Gomti Nagar,"1/10,Surya Kiran Building,Near Mithaiwala Chauraha Vivek Khand ,Gomti Nagarlucknow, Uttar Pradesh",Gomti Nagar,NULL,INUPLKN01,NULL,4933,38,82,226010,26.8005947,80.826707,"0522 - 2392440, 2392450, 2392460",1,1,0,7/26/2017 10:19,NULL
77,Ferozepur Road,"2618,Opposite Silver Arc Mall,Ferozpur Roadludhiana, Punjab",Ferozepur Road,NULL,INPBLUD01,NULL,3225,32,82,141001,30.901926,75.8265603,"0161 5096488, 09914250471",1,1,0,7/26/2017 10:19,NULL
78,Madurai,"Plot No. 1, Milk Project Junction, Sivagangai Roadk.K. Nagar, Maduraimadurai , Tamil Nadu",Madurai,NULL,INTNMDR01,NULL,3912,35,82,625020,9.926429,78.1398753,0452 - 4393381 / 82 / 83,1,1,0,7/26/2017 10:19,NULL
79,Mulund West,"101, 1St Floor,Vikas Paradise Commercial Complex Near Santoshi Mata Mandir,Lbs Roadmumbai, Maharashtra",Mulund West,NULL,INMHMUM07,NULL,2707,22,82,400080,18.9553628,73.1329421,"022 - 25620774 / 5 / 6, 9320943167",1,1,0,7/26/2017 10:19,NULL
80,Kandivali West,"B-101/102,Sangeeta Apartments,Ram Gali Sv Road,Kandivali (West)Mumbai, Maharashtra",Kandivali West,NULL,INMHMUM05,NULL,2707,22,82,400067,19.1998154,72.84584,"022 - 28082002, 28082116, 28056180, 28056217",1,1,0,7/26/2017 10:19,NULL
81,Malad West,"Golden Line Business Centre, Link Way Estate Next To Chincholi Fire Brigade, Link Road, Malad (West)Mumbai, Maharashtra",Malad West,NULL,INMHMUM08,NULL,2707,22,82,400064,19.176402,72.8366725,022 - 40353636 / 37 / 38 / 39,1,1,0,7/26/2017 10:19,NULL
82,Vashi,"Plot No. 41, Sector 19 E, Next To Palm Beach, Near Galleria Mall, Vashinavi Mumbai, Maharashtra",Vashi,NULL,INMHMUM17,NULL,2707,22,82,400705,19.0866841,73.0061171,"022 - 27842353 / 4 / 5, 9820971005",1,1,0,7/26/2017 10:19,NULL
83,Andheri East,"Hi Tech Plaza, Ground Floor,Opposite Shanti Nagar Bus Stop Mahakali Caves Road,Andheri (East)Mumbai, Maharashtra",Andheri East,NULL,INMHMUM12,NULL,2707,22,82,400093,19.1203278,72.8613133,022 - 26870081 / 2 / 3 / 4,1,1,0,7/26/2017 10:19,NULL
84,Andheri West,"Transavenue, 2Nd Floor, Near Mahanagar Telephone Exchange, Mhada Andheri West,Mumbai, Maharashtra",Andheri West,NULL,INMHMUM16,NULL,2707,22,82,400053,19.1354025,72.8222857,"022 - 26319056, 26319058, 26319079, 26310050",1,1,0,7/26/2017 10:19,NULL
85,Panvel,"Shop No 1, 2 & 3,Neel Kanth Darshan Building Next To Sk Bajaj Showroom,Panvelmumbai, Maharashtra",Panvel,NULL,INMHMUM18,NULL,2707,22,82,410206,18.9872509,73.109263,02227451081/82/83,1,1,0,7/26/2017 10:19,NULL
86,Chembur,"398B,Madhuram Bunglow,8Th Road,Near Ahobila Muttchembur (East)Mumbai, Maharashtra",Chembur,NULL,INMHCHM01,NULL,2707,22,82,400071,19.0530194,72.8975607,022-25226382/87/96,1,1,0,7/26/2017 10:19,NULL
87,Bandra West,"893, 4Th Floor,Nootan Chambers,Above Yes Bankturner Road,Bandra (West)Mumbai, Maharashtra",Bandra West,NULL,INMHMUM01,NULL,2707,22,82,400050,19.058092,72.8318333,022-26415666/62/61/63,1,1,0,7/26/2017 10:19,NULL
88,Worli,"502,Bengal Chemical Building,Veer Savarkar Roadprabhadevi,Mumbai, Maharashtra",Worli,NULL,INMHMUM06,NULL,2707,22,82,400025,19.0133374,72.8235831,"02224334036 ,9892161133",1,1,0,7/26/2017 10:19,NULL
89,Marine Drive,"Nkm International House, Backbay Hall, (Near Hotel Marine Palaza), Babubhai Chenoy Road Nariman Point, Marine Drivemumbai, Maharashtra",Marine Drive,NULL,INMHMUM02,NULL,2707,22,82,400020,18.925609,72.8208623,"022 - 22023695, 22023696, 22023688, 22819325, 22819326",1,1,0,7/26/2017 10:19,NULL
90,Mysore,"1St & 2Nd Floor,Shree Ganesh Arcade,Kalidasa Road Vv Mohalla,Mysore, Karnataka",Mysore,NULL,INKRMSR01,NULL,1750,17,82,570002,12.3242089,76.6235942,0821-4252621/22/23,1,1,0,7/26/2017 10:19,NULL
91,Jaripatka,"4/1, J. P. Heights, Byramji Town, Jaripatka, Nagpurnagpur, Maharashtra",Jaripatka,NULL,INMHNPR02,NULL,2715,22,82,440013,21.1745395,79.0815608,"0712 - 6603221 / 23, 3252993",1,1,0,7/26/2017 10:19,NULL
92,Gokulpeth,"32, Mangalam Marvel, West Highcourt Road, Gokulpeth, Nagpurnagpur, Maharashtra",Gokulpeth,NULL,INMHNPR01,NULL,2715,22,82,440010,21.1745251,79.0137086,"0712 - 2540818, 2558992, 3252996, 9326930965, 9822697485",1,1,0,7/26/2017 10:19,NULL
93,Nasik,"Padmadarshan Palace, Plot No. 41, Nr. Jehan Circle, Gangapur Road, Nasiknasik, Maharashtra",Nasik,NULL,INMHNSK01,NULL,2724,22,82,422009,20.011596,73.7538362,"0253 - 2347222 / 333 / 111, 9923477399",1,1,0,7/26/2017 10:19,NULL
94,Kharghar,"Hall No. 2, First Floor, Bhoomi Tower, Plot No 28, Sector 4, Above State Bank Of Patiala, Khargharnavi Mumbai, Maharashtra",Kharghar,NULL,INMHMUM20,NULL,2726,22,82,410210,19.0341163,73.0617213,"022 - 27746901 / 02 / 03, 9820426732",1,1,0,7/26/2017 10:19,NULL
95,Sector 18,"5Th Floor, Som Datt Tower, Sector 18,Noida, Uttar Pradesh",Sector 18,NULL,INUPNDA01,NULL,5022,38,82,201301,28.571474,77.3198503,"0120-2510787/88,0120-4125787,0120-2511205",1,1,0,7/26/2017 10:19,NULL
96,Bailey Road,"3Rd And 4Th Floor, Kanak Business Center, Vijay Nagar More, Near Flyover, Bailey Roadpatna, Bihar",Bailey Road,NULL,INBHPTN01,NULL,563,5,82,800014,25.6130312,85.12073,"0612-2590110/22,3297150",1,1,0,7/26/2017 10:19,NULL
97,Dak Bunglow,"3Rd Floor, Nutan Palaza Bandar Bagicha, New Dak Bunglow Roadpatna, Bihar",Dak Bunglow,NULL,INBHPTN03,NULL,563,5,82,800001,25.623217,85.1296313,"0612 - 2207598 / 99, 9693254975",1,1,0,7/26/2017 10:19,NULL
98,Koregaon Park,"Shop No. 479-480,Jewel Square ,Cts No. 15/A/7/158/15 & 9/15,Koregaon Park Roadpune, Maharashtra",Koregaon Park,NULL,INMHPUN07,NULL,2763,22,82,411001,18.538449,73.8837293,2041059595,1,1,0,7/26/2017 10:19,NULL
99,Aundh,"Sanghvi Arcade, 1St Floor, Parihar Chowk, Aundhpune, Maharashtra",Aundh,NULL,INMHPUN04,NULL,2763,22,82,411007,18.561086,73.8080673,020-40195959,1,1,0,7/26/2017 10:19,NULL
100,Magarpatta,"T20-T24, 3Rd Floor,Destination Center Magarpatta City,Hadapsarpune, Maharashtra",Magarpatta,NULL,INMHPUN06,NULL,2763,22,82,411028,18.5095902,73.9259921,020-67243434/5/6,1,1,0,7/26/2017 10:19,NULL
101,Mukund Nagar,"Shop No. 11, Parshwa Bldg, Sujay Garden Mukund Nagarpune, Maharashtra",Mukund Nagar,NULL,INMHPUN05,NULL,2763,22,82,411037,18.4968266,73.8555468,020-40195444/5/6,1,1,0,7/26/2017 10:19,NULL
102,Raipur,"Hig-27,Main Road,Sector 1,Housing Board Colonyshankar Nagarraipur, Chhattisgarh",Raipur,NULL,INCGRPR01,NULL,684,7,82,492001,21.254287,81.6603033,"0771 - 4055005, 4077004/5",1,1,0,7/26/2017 10:19,NULL
103,Rajkot,"218, Sigma Complex Vidhya Nagar Station Road, Opposite Pragati Maidan, Vidhya Nagarrajkot, Gujarat",Rajkot,NULL,INGJRKT01,NULL,1011,12,82,360001,22.5492255,72.9338304,"0269-2234062, 9898579134, 9408152443",1,1,0,7/26/2017 10:19,NULL
104,Rajahmundry,"No. 79-2-9/3, Plot No. 54, Jetty Enclave, Near Saibaba Temple, Tilak Road rajahmundry, Andhra Pradesh",Rajahmundry,NULL,INAPRJM01,NULL,4496,2,82,533103,17.003517,81.7946553,"0883-2464926,0883-2464927",1,1,0,7/26/2017 10:19,NULL
105,Adajan,"1St Floor, 105-Millionaire Business Park, L P Savani Road, Opp. Tgb Restaurant,Above Mcdonald, Adajansurat, Gujarat",Adajan,NULL,INGJSUR02,NULL,1041,12,82,395009,21.1939392,72.7849359,"0261 - 6511333 / 444, 9825653917",1,1,0,7/26/2017 10:19,NULL
106,Vazhuthacaud,"Sree Gangadharam, Tc - 14/1026, Opp. Trivandrum Club, Vazhuthacaudtrivandrum, Kerala",Vazhuthacaud,NULL,INKRTRV01,NULL,2045,19,82,695010,8.5055,76.9587543,"0471 - 2333364, 2336269",1,1,0,7/26/2017 10:19,NULL
107,Varanasi,"57 Gandhinagar, Sigravaranasi, Uttar Pradesh",Varanasi,NULL,INUPVRN01,NULL,5211,38,82,221010,25.313531,82.9837133,0542 - 2227274 / 75,1,1,0,7/26/2017 10:19,NULL
108,Vijayawada,"1St Floor, K. P. Towers, Above Kahjana Jewellers, Near Benz Circle, M. G. Roadvijayawada, Andhra Pradesh",Vijayawada,NULL,INAPVWD01,NULL,285,2,82,520010,16.4986673,80.6500912,0866 - 2493615 / 16,1,1,0,7/26/2017 10:19,NULL
109,Vizag Gajuwaka,"D.No: 25-1-2/5, 1St Floor,Padmasree Arcade Nh 5,Chinagantyada,Old Gajuwakavisakhapatnam, Andhra Pradesh",Vizag Gajuwaka,NULL,INAPVSK02,NULL,287,2,82,530026,17.683256,83.1942557,"0891-2588167, 0891-2588168, 0891-2588169",1,1,0,7/26/2017 10:19,NULL
110,Siripuram Road,"1St Floor,Vianyagar Heights,Cbm Compoundsiripuram Road,Visakhapatnam, Andhra Pradesh",Siripuram Road,NULL,INAPVSK01,NULL,287,2,82,530001,17.683256,83.1942557,"0891 - 2588178 / 179, 2753388",1,1,0,7/26/2017 10:19,NULL
111,Warrangal,"H No.1-8-592, Nitya Plaza, Nakkalagutta, Hanmakinda, Warangalwarrangal , Telangana",Warrangal,NULL,INTLWNG01,NULL,4505,36,82,506001,18.0031914,79.5549433,0870-6566661/2/3,1,1,0,7/26/2017 10:19,NULL
